DELTA 2 R/B(1)          
1 20453U 90008B   26025.55846571  .00077746  00000+0  10824-2 0  9994
2 20453  35.6057  96.6310 0100166 219.1562 140.1891 15.49978958919421
COSMOS 2058             
1 20465U 90010A   26025.60644596  .00005279  00000+0  31471-3 0  9993
2 20465  82.4650  89.8702 0011537 117.7215 242.5187 15.10919585935739
SL-14 R/B               
1 20466U 90010B   26025.72288670  .00000859  00000+0  10106-3 0  9995
2 20466  82.5044 307.7443 0021424  81.9867 278.3778 14.83525480922110
SL-14 R/B               
1 20511U 90018B   26025.63171173  .00000673  00000+0  81648-4 0  9997
2 20511  82.5199 263.3442 0015153 230.7635 129.2235 14.82099608916209
HST                     
1 20580U 90037B   26025.86783161  .00011261  00000+0  38318-3 0  9995
2 20580  28.4682 331.9691 0001756   3.6054 356.4554 15.28757420766750
SL-16 R/B               
1 20625U 90046B   26025.43374679 -.00000194  00000+0 -75596-4 0  9993
2 20625  70.9993  28.7569 0014061 359.6543   0.4568 14.15007306842271
COSMOS 2084             
1 20663U 90055A   26025.68126028  .00004815  00000+0  34626-3 0  9995
2 20663  62.7903 122.2341 0024135 181.4292 178.6744 15.05354908929842
SL-6 R/B(2)             
1 20666U 90055D   26025.40629377  .00003534  00000+0  27263-3 0  9999
2 20666  62.7841  41.0145 0018618 333.5905  26.4244 15.03334733931688
SL-8 R/B                
1 20775U 90078B   26025.21089230  .00024535  00000+0  73400-3 0  9990
2 20775  82.9048 290.3623 0368148 159.6610 201.9727 14.87537831802833
SL-8 R/B                
1 21088U 91006B   26025.55029882  .00000029  00000+0  13183-4 0  9999
2 21088  82.9410 202.1226 0023027 153.3052 265.5163 13.77492019758138
OKEAN-3                 
1 21397U 91039A   26025.71792109  .00005857  00000+0  41594-3 0  9995
2 21397  82.5167  18.4617 0015880 113.4249 246.8649 15.04444681858575
COSMOS 2151             
1 21422U 91042A   26025.79030230  .00003199  00000+0  25549-3 0  9995
2 21422  82.4975 125.0502 0012114 197.8800 162.2000 14.99917102856761
